[{"OBJECT_NAME":"STARLINK-34843","OBJECT_ID":"2025-176D","EPOCH":"2026-03-09T12:39:51.081120","MEAN_MOTION":15.30178354,"ECCENTRICITY":0.00011608,"INCLINATION":53.1572,"RA_OF_ASC_NODE":153.6281,"ARG_OF_PERICENTER":81.873,"MEAN_ANOMALY":278.2402,"EPHEMERIS_TYPE":0,"CLASSIFICATION_TYPE":"U","NORAD_CAT_ID":65201,"ELEMENT_SET_NO":999,"REV_AT_EPOCH":3309,"BSTAR":0.0011650012,"MEAN_MOTION_DOT":0.00034281,"MEAN_MOTION_DDOT":0},{"OBJECT_NAME":"PEGASUS DEB","OBJECT_ID":"1994-029AG","EPOCH":"2026-03-09T11:16:42.963744","MEAN_MOTION":15.37636263,"ECCENTRICITY":0.0031206,"INCLINATION":82.0362,"RA_OF_ASC_NODE":86.2933,"ARG_OF_PERICENTER":155.6019,"MEAN_ANOMALY":204.671,"EPHEMERIS_TYPE":0,"CLASSIFICATION_TYPE":"U","NORAD_CAT_ID":23986,"ELEMENT_SET_NO":999,"REV_AT_EPOCH":61542,"BSTAR":0.00061808813,"MEAN_MOTION_DOT":0.00023279,"MEAN_MOTION_DDOT":0}]
